  { id: 44, actorId: 64, semiMajorAxis: 11.2, eccentricity: 0.26, inclination: 5.3, argOfPeriapsis: 140.6, ascendingNode: 58.2, meanAnomalyAtEpoch: 250.4 },
  { id: 45, actorId: 65, semiMajorAxis: 1e-3, eccentricity: 0.07, inclination: 3.142, argOfPeriapsis: 45.769, ascendingNode: 27.314, meanAnomalyAtEpoch: 97.123 },
  { id: 46, actorId: 66, semiMajorAxis: 0.0027, eccentricity: 0.09, inclination: 4.36, argOfPeriapsis: 250.908, ascendingNode: 114.783, meanAnomalyAtEpoch: 178.234 },
  { id: 47, actorId: 67, semiMajorAxis: 0.04, eccentricity: 0.36, inclination: 2.14, argOfPeriapsis: 310.582, ascendingNode: 87.231, meanAnomalyAtEpoch: 67.391 },
  { id: 48, actorId: 68, semiMajorAxis: 3e-3, eccentricity: 0.06, inclination: 0.14, argOfPeriapsis: 234.678, ascendingNode: 77.123, meanAnomalyAtEpoch: 10.234 },
  { id: 49, actorId: 69, semiMajorAxis: 7e-3, eccentricity: 0.16, inclination: 0.84, argOfPeriapsis: 56.789, ascendingNode: 210.345, meanAnomalyAtEpoch: 178.123 },
  { id: 50, actorId: 70, semiMajorAxis: 0.015, eccentricity: 0.09, inclination: 1.32, argOfPeriapsis: 123.456, ascendingNode: 300.234, meanAnomalyAtEpoch: 250.567 },
  { id: 51, actorId: 71, semiMajorAxis: 0.0017, eccentricity: 0.03, inclination: -30.2, argOfPeriapsis: 200.123, ascendingNode: 187.489, meanAnomalyAtEpoch: 342.567 },
  { id: 52, actorId: 72, semiMajorAxis: 0.0024, eccentricity: 0.02, inclination: -31.4, argOfPeriapsis: 78.934, ascendingNode: 188.567, meanAnomalyAtEpoch: 150.245 },
  { id: 53, actorId: 73, semiMajorAxis: 0.0035, eccentricity: 0.03, inclination: -32.1, argOfPeriapsis: 102.345, ascendingNode: 190.255, meanAnomalyAtEpoch: 89.456 },
  { id: 54, actorId: 74, semiMajorAxis: 0.0064, eccentricity: 0.13, inclination: -35.8, argOfPeriapsis: 120.789, ascendingNode: 195.124, meanAnomalyAtEpoch: 270.987 },
  { id: 55, actorId: 82, semiMajorAxis: 2.2, eccentricity: 0.125, inclination: 1.7, argOfPeriapsis: 30.5, ascendingNode: 240.3, meanAnomalyAtEpoch: 70.8 },
  { id: 56, actorId: 83, semiMajorAxis: 3e-3, eccentricity: 0.07, inclination: 3.142, argOfPeriapsis: 45.769, ascendingNode: 27.314, meanAnomalyAtEpoch: 177.123 }
]
